$$SOE
2459580.500000000, A.D. 2022-Jan-01 00:00:00.0000, 3.497792642326465E+08, -6.925989044308993E+07, -1.798734300458699E+07,
2459587.500000000, A.D. 2022-Jan-08 00:00:00.0000, 3.512234657159135E+08, -5.802483661917149E+07, -1.710107734685193E+07,
2459594.500000000, A.D. 2022-Jan-15 00:00:00.0000, 3.522912252963737E+08, -4.672770928926849E+07, -1.619647198292314E+07,
2459601.500000000, A.D. 2022-Jan-22 00:00:00.0000, 3.529793259977256E+08, -3.538034853515991E+07, -1.527440283140706E+07,
2459608.500000000, A.D. 2022-Jan-29 00:00:00.0000, 3.532848716549622E+08, -2.399477110034588E+07, -1.433577185054628E+07,
2459615.500000000, A.D. 2022-Feb-05 00:00:00.0000, 3.532052947712430E+08, -1.258316649583905E+07, -1.338150685399555E+07,
2459622.500000000, A.D. 2022-Feb-12 00:00:00.0000, 3.527383668383326E+08, -1.157893693882722E+06, -1.241256158204723E+07,
2459629.500000000, A.D. 2022-Feb-19 00:00:00.0000, 3.518822097797629E+08, 1.026852400046487E+07, -1.142991570952054E+07,
2459636.500000000, A.D. 2022-Feb-26 00:00:00.0000, 3.506353071897572E+08, 2.168340521771120E+07, -1.043457472538029E+07,
2459643.500000000, A.D. 2022-Mar-05 00:00:00.0000, 3.489965155084828E+08, 3.307391735617927E+07, -9.427569745311525E+06,
2459650.500000000, A.D. 2022-Mar-12 00:00:00.0000, 3.469650753329479E+08, 4.442708395392394E+07, -8.409957279024884E+06,
2459657.500000000, A.D. 2022-Mar-19 00:00:00.0000, 3.445406229084782E+08, 5.572979267061239E+07, -7.382818952399775E+06,
2459664.500000000, A.D. 2022-Mar-26 00:00:00.0000, 3.417232017935737E+08, 6.696880391625112E+07, -6.347261182681549E+06,
2459671.500000000, A.D. 2022-Apr-02 00:00:00.0000, 3.385132747331855E+08, 7.813076011381498E+07, -5.304414813007940E+06,
2459678.500000000, A.D. 2022-Apr-09 00:00:00.0000, 3.349117359759070E+08, 8.920219564188735E+07, -4.255434726286557E+06,
2459685.500000000, A.D. 2022-Apr-16 00:00:00.0000, 3.309199243471143E+08, 1.001695481500693E+08, -3.201499413301066E+06,
2459692.500000000, A.D. 2022-Apr-23 00:00:00.0000, 3.265396357555206E+08, 1.110191723738532E+08, -2.143810284988582E+06,
2459699.500000000, A.D. 2022-Apr-30 00:00:00.0000, 3.217731332154507E+08, 1.217373542493235E+08, -1.083590735075250E+06,
2459706.500000000, A.D. 2022-May-07 00:00:00.0000, 3.166231573980028E+08, 1.323103233897103E+08, -2.208539040585607E+04,
2459713.500000000, A.D. 2022-May-14 00:00:00.0000, 3.110929390346035E+08, 1.427242669937664E+08, 1.039440576534919E+06,
2459720.500000000, A.D. 2022-May-21 00:00:00.0000, 3.051862110708331E+08, 1.529653459784123E+08, 2.099702326412633E+06,
2459727.500000000, A.D. 2022-May-28 00:00:00.0000, 2.989072200189120E+08, 1.630197124079956E+08, 3.157396393923648E+06,
2459734.500000000, A.D. 2022-Jun-04 00:00:00.0000, 2.922607367083257E+08, 1.728735279342050E+08, 4.211201844825976E+06,
2459741.500000000, A.D. 2022-Jun-11 00:00:00.0000, 2.852520664962264E+08, 1.825129832714034E+08, 5.259781540944383E+06,
2459748.500000000, A.D. 2022-Jun-18 00:00:00.0000, 2.778870588884109E+08, 1.919243187385183E+08, 6.301783515482038E+06,
2459755.500000000, A.D. 2022-Jun-25 00:00:00.0000, 2.701721165082542E+08, 2.010938458463956E+08, 7.335842457864463E+06,
2459762.500000000, A.D. 2022-Jul-02 00:00:00.0000, 2.621142034520241E+08, 2.100079698694882E+08, 8.360581294757172E+06,
2459769.500000000, A.D. 2022-Jul-09 00:00:00.0000, 2.537208533217207E+08, 2.186532135727598E+08, 9.374612849375367E+06,
2459776.500000000, A.D. 2022-Jul-16 00:00:00.0000, 2.450001767720499E+08, 2.270162431538626E+08, 1.037654167422819E+07,
2459783.500000000, A.D. 2022-Jul-23 00:00:00.0000, 2.359608662454345E+08, 2.350838964450344E+08, 1.136496626585849E+07,
2459790.500000000, A.D. 2022-Jul-30 00:00:00.0000, 2.266121978508418E+08, 2.428432099975746E+08, 1.233848138175942E+07,
2459797.500000000, A.D. 2022-Aug-06 00:00:00.0000, 2.169640338720162E+08, 2.502814456682089E+08, 1.329568018380475E+07,
2459804.500000000, A.D. 2022-Aug-13 00:00:00.0000, 2.070268249665319E+08, 2.573861194147034E+08, 1.423515650936793E+07,
2459811.500000000, A.D. 2022-Aug-20 00:00:00.0000, 1.968116103715768E+08, 2.641450317380546E+08, 1.515550737323876E+07,
2459818.500000000, A.D. 2022-Aug-27 00:00:00.0000, 1.863300160718600E+08, 2.705462989697098E+08, 1.605533563346489E+07,
2459825.500000000, A.D. 2022-Sep-03 00:00:00.0000, 1.755942510631711E+08, 2.765783852021637E+08, 1.693325278618935E+07,
2459832.500000000, A.D. 2022-Sep-10 00:00:00.0000, 1.646171016868588E+08, 2.822301347820383E+08, 1.778788187845334E+07,
2459839.500000000, A.D. 2022-Sep-17 00:00:00.0000, 1.534119239526727E+08, 2.874908052465143E+08, 1.861786053005920E+07,
2459846.500000000, A.D. 2022-Sep-24 00:00:00.0000, 1.419926338040362E+08, 2.923501005222653E+08, 1.942184404744902E+07,
2459853.500000000, A.D. 2022-Oct-01 00:00:00.0000, 1.303736954670270E+08, 2.967982042224815E+08, 2.019850859716314E+07,
2459860.500000000, A.D. 2022-Oct-08 00:00:00.0000, 1.185701082025711E+08, 3.008258134113235E+08, 2.094655443433738E+07,
2459867.500000000, A.D. 2022-Oct-15 00:00:00.0000, 1.065973904574968E+08, 3.044241738670992E+08, 2.166470935773608E+07,
2459874.500000000, A.D. 2022-Oct-22 00:00:00.0000, 9.447155916670331E+07, 3.075851149680928E+08, 2.235173243941082E+07,
2459881.500000000, A.D. 2022-Oct-29 00:00:00.0000, 8.220910664399505E+07, 3.103010814161399E+08, 2.300641757434124E+07,
2459888.500000000, A.D. 2022-Nov-05 00:00:00.0000, 6.982697713170753E+07, 3.125651643490815E+08, 2.362759686670111E+07,
2459895.500000000, A.D. 2022-Nov-12 00:00:00.0000, 5.734254103309612E+07, 3.143711328955536E+08, 2.421414411856937E+07,
2459902.500000000, A.D. 2022-Nov-19 00:00:00.0000, 4.477356610921443E+07, 3.157134649956658E+08, 2.476497839047019E+07,
2459909.500000000, A.D. 2022-Nov-26 00:00:00.0000, 3.213818592511301E+07, 3.165873768666694E+08, 2.527906755805708E+07,
2459916.500000000, A.D. 2022-Dec-03 00:00:00.0000, 1.945486575777951E+07, 3.169888508759638E+08, 2.575543182869212E+07,
2459923.500000000, A.D. 2022-Dec-10 00:00:00.0000, 6.742366082060697E+06, 3.169146616120932E+08, 2.619314719421150E+07,
2459930.500000000, A.D. 2022-Dec-17 00:00:00.0000, -5.980296245149188E+06, 3.163623999000469E+08, 2.659134879337263E+07,
2459937.500000000, A.D. 2022-Dec-24 00:00:00.0000, -1.869388887315449E+07, 3.153304944671530E+08, 2.694923414506868E+07,
2459944.500000000, A.D. 2022-Dec-31 00:00:00.0000, -3.137900641843652E+07, 3.138182311429583E+08, 2.726606620366766E+07,
2459951.500000000, A.D. 2023-Jan-07 00:00:00.0000, -4.401611421403994E+07, 3.118257703426307E+08, 2.754117627906814E+07,
2459958.500000000, A.D. 2023-Jan-14 00:00:00.0000, -5.658559512920041E+07, 3.093541631363431E+08, 2.777396701833247E+07,
2459965.500000000, A.D. 2023-Jan-21 00:00:00.0000, -6.906779989243285E+07, 3.064053625443343E+08, 2.796391522499943E+07,
2459972.500000000, A.D. 2023-Jan-28 00:00:00.0000, -8.144309703022444E+07, 3.029822296930990E+08, 2.811057414335187E+07,
2459979.500000000, A.D. 2023-Feb-04 00:00:00.0000, -9.369192238737832E+07, 2.990885377376428E+08, 2.821357545729645E+07,
2459986.500000000, A.D. 2023-Feb-11 00:00:00.0000, -1.057948297492186E+08, 2.947289732493743E+08, 2.827263113515878E+07,
2459993.500000000, A.D. 2023-Feb-18 00:00:00.0000, -1.177325423407604E+08, 2.899091341530009E+08, 2.828753504181868E+07,
2460000.500000000, A.D. 2023-Feb-25 00:00:00.0000, -1.294860046431064E+08, 2.846355239839823E+08, 2.825816426525933E+07,
2460007.500000000, A.D. 2023-Mar-04 00:00:00.0000, -1.410364341202281E+08, 2.789155424479418E+08, 2.818448013586012E+07,
2460014.500000000, A.D. 2023-Mar-11 00:00:00.0000, -1.523653725185084E+08, 2.727574722753080E+08, 2.806652892425968E+07,
2460021.500000000, A.D. 2023-Mar-18 00:00:00.0000, -1.634547363821667E+08, 2.661704623459507E+08, 2.790444220052031E+07,
2460028.500000000, A.D. 2023-Mar-25 00:00:00.0000, -1.742868662739597E+08, 2.591645070931392E+08, 2.769843682614219E+07,
2460035.500000000, A.D. 2023-Apr-01 00:00:00.0000, -1.848445739751357E+08, 2.517504226692699E+08, 2.744881456924394E+07,
2460042.500000000, A.D. 2023-Apr-08 00:00:00.0000, -1.951111879882911E+08, 2.439398212208844E+08, 2.715596149956992E+07,
2460049.500000000, A.D. 2023-Apr-15 00:00:00.0000, -2.050705993976696E+08, 2.357450823248337E+08, 2.682034728983612E+07,
2460056.500000000, A.D. 2023-Apr-22 00:00:00.0000, -2.147073059935507E+08, 2.271793187111668E+08, 2.644252401144865E+07,
2460063.500000000, A.D. 2023-Apr-29 00:00:00.0000, -2.240064516601740E+08, 2.182563387037026E+08, 2.602312436311559E+07,
2460070.500000000, A.D. 2023-May-06 00:00:00.0000, -2.329538625701157E+08, 2.089906073678547E+08, 2.556285964995621E+07,
2460077.500000000, A.D. 2023-May-13 00:00:00.0000, -2.415360809751409E+08, 1.993972057188800E+08, 2.506251754503159E+07,
2460084.500000000, A.D. 2023-May-20 00:00:00.0000, -2.497403961962069E+08, 1.894917877697123E+08, 2.452295959002389E+07,
2460091.500000000, A.D. 2023-May-27 00:00:00.0000, -2.575548724794621E+08, 1.792905356777858E+08, 2.394511843457563E+07,
2460098.500000000, A.D. 2023-Jun-03 00:00:00.0000, -2.649683735433354E+08, 1.688101133147027E+08, 2.332999483116558E+07,
2460105.500000000, A.D. 2023-Jun-10 00:00:00.0000, -2.719705837021166E+08, 1.580676185443685E+08, 2.267865440293712E+07,
2460112.500000000, A.D. 2023-Jun-17 00:00:00.0000, -2.785520254168696E+08, 1.470805344483473E+08, 2.199222419336737E+07,
2460119.500000000, A.D. 2023-Jun-24 00:00:00.0000, -2.847040729252576E+08, 1.358666798515695E+08, 2.127188899627379E+07,
2460126.500000000, A.D. 2023-Jul-01 00:00:00.0000, -2.904189616994566E+08, 1.244441602703183E+08, 2.051888753496927E+07,
2460133.500000000, A.D. 2023-Jul-08 00:00:00.0000, -2.956897954402453E+08, 1.128313203917709E+08, 1.973450873633216E+07,
2460140.500000000, A.D. 2023-Jul-15 00:00:00.0000, -3.005105519514118E+08, 1.010466955369694E+08, 1.892008801114822E+07,
2460147.500000000, A.D. 2023-Jul-22 00:00:00.0000, -3.048760844601976E+08, 8.910896134772480E+07, 1.807700315874710E+07,
$$EOE